[{"OBJECT_NAME":"STARLINK-30855","OBJECT_ID":"2023-170S","EPOCH":"2023-11-21T04:00:00.999936","MEAN_MOTION":15.64109527,"ECCENTRICITY":0.0001464,"INCLINATION":43.0003,"RA_OF_ASC_NODE":84.3022,"ARG_OF_PERICENTER":278.6313,"MEAN_ANOMALY":154.7829,"EPHEMERIS_TYPE":0,"CLASSIFICATION_TYPE":"U","NORAD_CAT_ID":58222,"ELEMENT_SET_NO":999,"REV_AT_EPOCH":381,"BSTAR":-0.019005,"MEAN_MOTION_DOT":-0.01637661,"MEAN_MOTION_DDOT":0},{"OBJECT_NAME":"STARLINK-30840","OBJECT_ID":"2023-170T","EPOCH":"2023-11-21T04:00:00.999936","MEAN_MOTION":15.64109277,"ECCENTRICITY":0.0001686,"INCLINATION":43.0002,"RA_OF_ASC_NODE":84.3009,"ARG_OF_PERICENTER":266.6742,"MEAN_ANOMALY":167.3487,"EPHEMERIS_TYPE":0,"CLASSIFICATION_TYPE":"U","NORAD_CAT_ID":58223,"ELEMENT_SET_NO":999,"REV_AT_EPOCH":381,"BSTAR":-0.019006,"MEAN_MOTION_DOT":-0.0163786,"MEAN_MOTION_DDOT":0},{"OBJECT_NAME":"STARLINK-30875","OBJECT_ID":"2023-170U","EPOCH":"2023-11-21T04:00:00.999936","MEAN_MOTION":15.66488069,"ECCENTRICITY":0.0001745,"INCLINATION":43.0002,"RA_OF_ASC_NODE":84.2922,"ARG_OF_PERICENTER":269.5331,"MEAN_ANOMALY":167.8255,"EPHEMERIS_TYPE":0,"CLASSIFICATION_TYPE":"U","NORAD_CAT_ID":58224,"ELEMENT_SET_NO":999,"REV_AT_EPOCH":387,"BSTAR":0.0010436,"MEAN_MOTION_DOT":0.00113051,"MEAN_MOTION_DDOT":0},{"OBJECT_NAME":"STARLINK-30872","OBJECT_ID":"2023-170V","EPOCH":"2023-11-21T12:00:00.999648","MEAN_MOTION":15.62579389,"ECCENTRICITY":0.0001621,"INCLINATION":43,"RA_OF_ASC_NODE":82.3127,"ARG_OF_PERICENTER":268.4461,"MEAN_ANOMALY":245.3212,"EPHEMERIS_TYPE":0,"CLASSIFICATION_TYPE":"U","NORAD_CAT_ID":58225,"ELEMENT_SET_NO":999,"REV_AT_EPOCH":279,"BSTAR":-0.0070081,"MEAN_MOTION_DOT":-0.00598362,"MEAN_MOTION_DDOT":0},{"OBJECT_NAME":"STARLINK-30865","OBJECT_ID":"2023-170W","EPOCH":"2023-11-21T04:00:00.999936","MEAN_MOTION":15.64102943,"ECCENTRICITY":0.000197,"INCLINATION":43.0002,"RA_OF_ASC_NODE":84.2947,"ARG_OF_PERICENTER":270.7368,"MEAN_ANOMALY":165.7279,"EPHEMERIS_TYPE":0,"CLASSIFICATION_TYPE":"U","NORAD_CAT_ID":58226,"ELEMENT_SET_NO":999,"REV_AT_EPOCH":381,"BSTAR":-0.019006,"MEAN_MOTION_DOT":-0.01637674,"MEAN_MOTION_DDOT":0},{"OBJECT_NAME":"STARLINK-30874","OBJECT_ID":"2023-170X","EPOCH":"2023-11-21T04:00:00.999936","MEAN_MOTION":15.64104859,"ECCENTRICITY":0.0001498,"INCLINATION":43.0001,"RA_OF_ASC_NODE":84.2963,"ARG_OF_PERICENTER":268.7146,"MEAN_ANOMALY":167.1396,"EPHEMERIS_TYPE":0,"CLASSIFICATION_TYPE":"U","NORAD_CAT_ID":58227,"ELEMENT_SET_NO":999,"REV_AT_EPOCH":381,"BSTAR":-0.019016,"MEAN_MOTION_DOT":-0.01638249,"MEAN_MOTION_DDOT":0},{"OBJECT_NAME":"STARLINK-30871","OBJECT_ID":"2023-170Y","EPOCH":"2023-11-21T04:00:00.999936","MEAN_MOTION":15.64101913,"ECCENTRICITY":0.0001501,"INCLINATION":43.0002,"RA_OF_ASC_NODE":84.2929,"ARG_OF_PERICENTER":269.6849,"MEAN_ANOMALY":167.39,"EPHEMERIS_TYPE":0,"CLASSIFICATION_TYPE":"U","NORAD_CAT_ID":58228,"ELEMENT_SET_NO":999,"REV_AT_EPOCH":273,"BSTAR":-0.019013,"MEAN_MOTION_DOT":-0.01637852,"MEAN_MOTION_DDOT":0},{"OBJECT_NAME":"STARLINK-30861","OBJECT_ID":"2023-171A","EPOCH":"2023-11-21T12:00:00.999648","MEAN_MOTION":15.73018769,"ECCENTRICITY":0.000161,"INCLINATION":43.0017,"RA_OF_ASC_NODE":178.8988,"ARG_OF_PERICENTER":266.693,"MEAN_ANOMALY":230.6935,"EPHEMERIS_TYPE":0,"CLASSIFICATION_TYPE":"U","NORAD_CAT_ID":58230,"ELEMENT_SET_NO":999,"REV_AT_EPOCH":335,"BSTAR":-0.013676,"MEAN_MOTION_DOT":-0.01699589,"MEAN_MOTION_DDOT":0},{"OBJECT_NAME":"STARLINK-30867","OBJECT_ID":"2023-171B","EPOCH":"2023-11-21T12:00:00.999648","MEAN_MOTION":15.73017142,"ECCENTRICITY":0.0001616,"INCLINATION":43.0017,"RA_OF_ASC_NODE":178.8972,"ARG_OF_PERICENTER":265.9834,"MEAN_ANOMALY":232.0265,"EPHEMERIS_TYPE":0,"CLASSIFICATION_TYPE":"U","NORAD_CAT_ID":58231,"ELEMENT_SET_NO":999,"REV_AT_EPOCH":335,"BSTAR":-0.013674,"MEAN_MOTION_DOT":-0.01699269,"MEAN_MOTION_DDOT":0},{"OBJECT_NAME":"STARLINK-30880","OBJECT_ID":"2023-171C","EPOCH":"2023-11-21T12:00:00.999648","MEAN_MOTION":15.73015104,"ECCENTRICITY":0.0001354,"INCLINATION":43.0016,"RA_OF_ASC_NODE":178.8951,"ARG_OF_PERICENTER":265.4508,"MEAN_ANOMALY":233.1833,"EPHEMERIS_TYPE":0,"CLASSIFICATION_TYPE":"U","NORAD_CAT_ID":58232,"ELEMENT_SET_NO":999,"REV_AT_EPOCH":329,"BSTAR":-0.013673,"MEAN_MOTION_DOT":-0.01698839,"MEAN_MOTION_DDOT":0},{"OBJECT_NAME":"STARLINK-30777","OBJECT_ID":"2023-171D","EPOCH":"2023-11-21T12:00:00.999648","MEAN_MOTION":15.72955482,"ECCENTRICITY":0.0001485,"INCLINATION":43.0015,"RA_OF_ASC_NODE":178.892,"ARG_OF_PERICENTER":271.1847,"MEAN_ANOMALY":228.7253,"EPHEMERIS_TYPE":0,"CLASSIFICATION_TYPE":"U","NORAD_CAT_ID":58233,"ELEMENT_SET_NO":999,"REV_AT_EPOCH":329,"BSTAR":-0.013045,"MEAN_MOTION_DOT":-0.01625985,"MEAN_MOTION_DDOT":0},{"OBJECT_NAME":"STARLINK-30860","OBJECT_ID":"2023-171E","EPOCH":"2023-11-21T12:00:00.999648","MEAN_MOTION":15.73014857,"ECCENTRICITY":0.0001173,"INCLINATION":43.0015,"RA_OF_ASC_NODE":178.8937,"ARG_OF_PERICENTER":279.5677,"MEAN_ANOMALY":219.6887,"EPHEMERIS_TYPE":0,"CLASSIFICATION_TYPE":"U","NORAD_CAT_ID":58234,"ELEMENT_SET_NO":999,"REV_AT_EPOCH":335,"BSTAR":-0.013685,"MEAN_MOTION_DOT":-0.01700011,"MEAN_MOTION_DDOT":0},{"OBJECT_NAME":"STARLINK-30879","OBJECT_ID":"2023-171F","EPOCH":"2023-11-21T12:00:00.999648","MEAN_MOTION":15.73011616,"ECCENTRICITY":0.0001371,"INCLINATION":43.0014,"RA_OF_ASC_NODE":178.8904,"ARG_OF_PERICENTER":273.8656,"MEAN_ANOMALY":226.6385,"EPHEMERIS_TYPE":0,"CLASSIFICATION_TYPE":"U","NORAD_CAT_ID":58235,"ELEMENT_SET_NO":999,"REV_AT_EPOCH":329,"BSTAR":-0.013687,"MEAN_MOTION_DOT":-0.01700158,"MEAN_MOTION_DDOT":0},{"OBJECT_NAME":"STARLINK-30853","OBJECT_ID":"2023-171G","EPOCH":"2023-11-21T12:00:00.999648","MEAN_MOTION":15.73009003,"ECCENTRICITY":0.0001167,"INCLINATION":43.0014,"RA_OF_ASC_NODE":178.8891,"ARG_OF_PERICENTER":264.9776,"MEAN_ANOMALY":236.1499,"EPHEMERIS_TYPE":0,"CLASSIFICATION_TYPE":"U","NORAD_CAT_ID":58236,"ELEMENT_SET_NO":999,"REV_AT_EPOCH":335,"BSTAR":-0.01367,"MEAN_MOTION_DOT":-0.01697985,"MEAN_MOTION_DDOT":0},{"OBJECT_NAME":"STARLINK-30866","OBJECT_ID":"2023-171H","EPOCH":"2023-11-21T12:00:00.999648","MEAN_MOTION":15.73008158,"ECCENTRICITY":0.000129,"INCLINATION":43.0017,"RA_OF_ASC_NODE":178.8875,"ARG_OF_PERICENTER":267.6917,"MEAN_ANOMALY":234.0593,"EPHEMERIS_TYPE":0,"CLASSIFICATION_TYPE":"U","NORAD_CAT_ID":58237,"ELEMENT_SET_NO":999,"REV_AT_EPOCH":335,"BSTAR":-0.01368,"MEAN_MOTION_DOT":-0.0169911,"MEAN_MOTION_DDOT":0},{"OBJECT_NAME":"STARLINK-30817","OBJECT_ID":"2023-171J","EPOCH":"2023-11-21T12:00:00.999648","MEAN_MOTION":15.73008618,"ECCENTRICITY":0.000164,"INCLINATION":43.0015,"RA_OF_ASC_NODE":178.885,"ARG_OF_PERICENTER":271.0345,"MEAN_ANOMALY":231.338,"EPHEMERIS_TYPE":0,"CLASSIFICATION_TYPE":"U","NORAD_CAT_ID":58238,"ELEMENT_SET_NO":999,"REV_AT_EPOCH":336,"BSTAR":-0.013701,"MEAN_MOTION_DOT":-0.0170169,"MEAN_MOTION_DDOT":0}]
