STARLINK-30855          
1 58222U 23170S   23325.16667824 -.01637661  00000+0 -19005-1 0  9994
2 58222  43.0003  84.3022 0001464 278.6313 154.7829 15.64109527  3813
STARLINK-30840          
1 58223U 23170T   23325.16667824 -.01637860  00000+0 -19006-1 0  9997
2 58223  43.0002  84.3009 0001686 266.6742 167.3487 15.64109277  3819
STARLINK-30875          
1 58224U 23170U   23325.16667824  .00113051  00000+0  10436-2 0  9995
2 58224  43.0002  84.2922 0001745 269.5331 167.8255 15.66488069  3870
STARLINK-30872          
1 58225U 23170V   23325.50001157 -.00598362  00000+0 -70081-2 0  9991
2 58225  43.0000  82.3127 0001621 268.4461 245.3212 15.62579389  2797
STARLINK-30865          
1 58226U 23170W   23325.16667824 -.01637674  00000+0 -19006-1 0  9993
2 58226  43.0002  84.2947 0001970 270.7368 165.7279 15.64102943  3812
STARLINK-30874          
1 58227U 23170X   23325.16667824 -.01638249  00000+0 -19016-1 0  9994
2 58227  43.0001  84.2963 0001498 268.7146 167.1396 15.64104859  3810
STARLINK-30871          
1 58228U 23170Y   23325.16667824 -.01637852  00000+0 -19013-1 0  9991
2 58228  43.0002  84.2929 0001501 269.6849 167.3900 15.64101913  2730
STARLINK-30861          
1 58230U 23171A   23325.50001157 -.01699589  00000+0 -13676-1 0  9998
2 58230  43.0017 178.8988 0001610 266.6930 230.6935 15.73018769  3350
STARLINK-30867          
1 58231U 23171B   23325.50001157 -.01699269  00000+0 -13674-1 0  9992
2 58231  43.0017 178.8972 0001616 265.9834 232.0265 15.73017142  3351
STARLINK-30880          
1 58232U 23171C   23325.50001157 -.01698839  00000+0 -13673-1 0  9994
2 58232  43.0016 178.8951 0001354 265.4508 233.1833 15.73015104  3292
STARLINK-30777          
1 58233U 23171D   23325.50001157 -.01625985  00000+0 -13045-1 0  9990
2 58233  43.0015 178.8920 0001485 271.1847 228.7253 15.72955482  3290
STARLINK-30860          
1 58234U 23171E   23325.50001157 -.01700011  00000+0 -13685-1 0  9995
2 58234  43.0015 178.8937 0001173 279.5677 219.6887 15.73014857  3358
STARLINK-30879          
1 58235U 23171F   23325.50001157 -.01700158  00000+0 -13687-1 0  9990
2 58235  43.0014 178.8904 0001371 273.8656 226.6385 15.73011616  3290
STARLINK-30853          
1 58236U 23171G   23325.50001157 -.01697985  00000+0 -13670-1 0  9996
2 58236  43.0014 178.8891 0001167 264.9776 236.1499 15.73009003  3359
STARLINK-30866          
1 58237U 23171H   23325.50001157 -.01699110  00000+0 -13680-1 0  9990
2 58237  43.0017 178.8875 0001290 267.6917 234.0593 15.73008158  3351
STARLINK-30817          
1 58238U 23171J   23325.50001157 -.01701690  00000+0 -13701-1 0  9992
2 58238  43.0015 178.8850 0001640 271.0345 231.3380 15.73008618  3362
